[{"OBJECT_NAME":"STARLINK-3934","OBJECT_ID":"2022-053V","EPOCH":"2026-03-09T12:01:08.252544","MEAN_MOTION":15.08829207,"ECCENTRICITY":0.00012583,"INCLINATION":53.2177,"RA_OF_ASC_NODE":144.9704,"ARG_OF_PERICENTER":100.4332,"MEAN_ANOMALY":259.6802,"EPHEMERIS_TYPE":0,"CLASSIFICATION_TYPE":"U","NORAD_CAT_ID":52675,"ELEMENT_SET_NO":999,"REV_AT_EPOCH":21114,"BSTAR":-8.8617308e-5,"MEAN_MOTION_DOT":-1.697e-5,"MEAN_MOTION_DDOT":0},{"OBJECT_NAME":"QPS-SAR-7 (TSUKUYOMI-II)","OBJECT_ID":"2024-066F","EPOCH":"2026-03-09T22:44:25.024704","MEAN_MOTION":15.07520552,"ECCENTRICITY":3.06e-5,"INCLINATION":45.6053,"RA_OF_ASC_NODE":45.6252,"ARG_OF_PERICENTER":310.671,"MEAN_ANOMALY":49.4148,"EPHEMERIS_TYPE":0,"CLASSIFICATION_TYPE":"U","NORAD_CAT_ID":59447,"ELEMENT_SET_NO":999,"REV_AT_EPOCH":10524,"BSTAR":0.00063712098,"MEAN_MOTION_DOT":9.59e-5,"MEAN_MOTION_DDOT":0}]
